OBJECT_NAME,OBJECT_ID,EPOCH,MEAN_MOTION,ECCENTRICITY,INCLINATION,RA_OF_ASC_NODE,ARG_OF_PERICENTER,MEAN_ANOMALY,EPHEMERIS_TYPE,CLASSIFICATION_TYPE,NORAD_CAT_ID,ELEMENT_SET_NO,REV_AT_EPOCH,BSTAR,MEAN_MOTION_DOT,MEAN_MOTION_DDOT
SAUDISAT 2,2004-025F,2026-06-16T23:02:47.295168,14.56683833,.0023598,98.5507,167.9363,298.9959,60.8873,0,U,28371,999,16571,.5539E-4,.198E-5,0
COSMOS 2407,2004-028A,2026-06-16T23:35:38.449824,13.76334690,.0037832,82.9608,74.9853,252.5331,118.0653,0,U,28380,999,9985,.46056E-4,.6E-6,0
COSMOS 2414,2005-002A,2026-06-17T02:30:05.192064,13.87926521,.0039494,82.9499,43.7094,331.5264,28.3741,0,U,28521,999,8380,.3516E-4,.57E-6,0
INMARSAT 4-F1,2005-009A,2026-06-16T18:59:43.987776,1.00270052,.0002476,5.1673,42.7606,43.2986,282.0427,0,U,28628,999,7766,0,.27E-6,0
SJ-7,2005-024A,2026-06-17T02:10:30.551232,15.21542497,.0016351,97.7277,198.1917,38.3711,321.8683,0,U,28737,999,14801,.29954E-3,.6698E-4,0
CUBESAT XI-V,2005-043F,2026-06-16T09:12:06.602400,14.72629782,.00135859,98.2985,322.9884,203.3717,156.6874,0,U,28895,999,10163,.19648745E-3,.12E-4,0
HINODE (SOLAR-B),2006-041A,2026-06-17T01:10:42.917376,14.68622988,.001602,98.0547,184.2037,290.2313,69.7169,0,U,29479,999,5485,.10291E-3,.55E-5,0
SHIJIAN-6 02B (SJ-6 02B),2006-046B,2026-06-17T05:06:46.793376,15.01376844,.0015371,97.7153,197.2716,60.3826,299.8927,0,U,29506,999,7074,.73054E-4,.883E-5,0
DMSP 5D-3 F17 (USA 191),2006-050A,2026-06-17T04:04:21.761184,14.14993061,.0011169,98.7378,174.7401,59.4497,300.7777,0,U,29522,999,1242,.17673E-4,-.9E-7,0
LAPAN-TUBSAT,2007-001A,2026-06-17T04:29:17.805696,14.85948953,.0011874,98.1335,167.4108,179.1902,180.9333,0,U,29709,999,5115,-.18559E-4,-.22E-5,0
HAIYANG-1B,2007-010A,2026-06-17T05:09:12.419712,14.31026885,.0013015,98.3495,150.0588,196.2368,163.8401,0,U,31113,999,64,.41575E-4,.68E-6,0
COSMO-SKYMED 2,2007-059A,2026-06-17T03:51:54.433152,14.82155005,.0001351,97.8886,351.7594,87.1710,272.9658,0,U,32376,999,200,.46291E-4,.316E-5,0
CARTOSAT-2A,2008-021A,2026-06-17T04:21:48.428064,14.79240086,.0013193,97.7631,216.8906,108.8315,251.4329,0,U,32783,999,97880,.10944E-3,.764E-5,0
CUTE-1.7+APD II (CO-65),2008-021C,2026-06-17T04:22:46.644384,15.09451626,.0009757,97.8272,149.6008,39.0823,321.1109,0,U,32785,999,98519,.26011E-3,.41E-4,0
SEEDS II (CO-66),2008-021J,2026-06-16T22:33:11.452032,15.32745063,.000109,97.7513,165.8255,4.6274,355.4977,0,U,32791,999,98725,.50504E-3,.15903E-3,0
YUBILEINY (RS30),2008-025A,2026-06-17T04:17:40.445376,12.43179667,.0018867,82.5036,355.4453,313.9508,46.0015,0,U,32953,999,81969,.45707E-3,.73E-6,0
FENGYUN 3A,2008-026A,2026-06-16T18:22:10.191072,14.19571060,.0009574,98.6883,108.6064,124.7763,235.4315,0,U,32958,999,93534,.44318E-4,.5E-6,0
HUANJING 1A (HJ-1A),2008-041A,2026-06-17T05:36:36.235008,14.83984870,.0019943,97.6676,154.0702,134.5866,225.6980,0,U,33320,999,95841,.84507E-4,.654E-5,0
HUANJING 1B (HJ-1B),2008-041B,2026-06-17T04:52:05.796768,14.83319000,.0036067,97.6513,157.2124,180.8084,179.3079,0,U,33321,999,95841,.16608E-3,.1323E-4,0
SHIJIAN-6 03A (SJ-6 03A),2008-053A,2026-06-17T04:20:14.423136,15.17164878,.0011623,97.8397,201.5011,20.3002,339.8690,0,U,33408,999,96296,.19468E-3,.3797E-4,0
SHIJIAN-6 03B (SJ-6 03B),2008-053B,2026-06-17T05:35:18.924288,15.04308230,.0020874,97.8569,188.1255,45.0066,315.2846,0,U,33409,999,96275,.67954E-4,.885E-5,0
CHUANGXIN 1-02 (CX-1-02),2008-056B,2026-06-17T05:27:41.445792,14.30152759,.0014995,98.6128,194.4939,136.3818,223.8553,0,U,33434,999,91862,-.26773E-4,-.113E-5,0
